{"address":"922 Killdeer Circle","amtDue":672.82,"city":"Portland","memId":"100000001","name":"Katerina Babber","state":"OR","suspended":true,"zip":"97221"}
{"address":"9962 Center Street","amtDue":864.58,"city":"Portland","memId":"100000002","name":"Abey Suarez","state":"OR","suspended":false,"zip":"97216"}
{"address":"53 Dakota Alley","amtDue":36.37,"city":"Portland","memId":"100000003","name":"Rosalind Melbourne","state":"OR","suspended":true,"zip":"97240"}
{"address":"7943 Ridgeway Park","amtDue":431.43,"city":"Portland","memId":"100000004","name":"Myer Barrat","state":"OR","suspended":false,"zip":"97232"}
{"address":"8764 Ramsey Lane","amtDue":905.0,"city":"Beaverton","memId":"100000005","name":"Philis Deetlof","state":"OR","suspended":false,"zip":"97075"}
{"address":"482 Elka Street","amtDue":518.19,"city":"Portland","memId":"100000006","name":"Dana Dictus","state":"OR","suspended":false,"zip":"97286"}
{"address":"2 Farmco Lane","amtDue":567.29,"city":"Beaverton","memId":"100000007","name":"Randie Budget","state":"OR","suspended":true,"zip":"97075"}
{"address":"8 Arrowood Court","amtDue":767.84,"city":"Portland","memId":"100000008","name":"Honoria Forrester","state":"OR","suspended":true,"zip":"97255"}
{"address":"59132 Mayfield Drive","amtDue":507.52,"city":"Portland","memId":"100000009","name":"Elaina Bumpass","state":"OR","suspended":false,"zip":"97211"}
{"address":"671 Independence Lane","amtDue":24.76,"city":"Portland","memId":"100000010","name":"Bidget Newnham","state":"OR","suspended":false,"zip":"97211"}
