{"address":"41576 Sugar Street","city":"Portland","consultNum":6,"memId":200000001,"name":"Kelcy Pallaske","state":"OR","weeklyFee":190.4,"zip":106547453}
{"address":"8099 Shoshone Center","city":"Portland","consultNum":10,"memId":278955472,"name":"Les Dun","state":"OR","weeklyFee":395.94,"zip":104220930}
{"address":"80 Westridge Pass","city":"Portland","consultNum":0,"memId":220355599,"name":"Leanna Gritten","state":"OR","weeklyFee":431.24,"zip":112167151}
{"address":"83 Ryan Plaza","city":"Portland","consultNum":6,"memId":275637421,"name":"Bear Snowman","state":"OR","weeklyFee":969.59,"zip":151622492}
{"address":"52195 Weeping Birch Hill","city":"Salem","consultNum":0,"memId":235733129,"name":"Cathee Staunton","state":"OR","weeklyFee":745.47,"zip":172389914}
{"address":"3762 Dahle Court","city":"Portland","consultNum":6,"memId":245327039,"name":"Sol Treslove","state":"OR","weeklyFee":455.68,"zip":179396416}
{"address":"20842 Everett Point","city":"Salem","consultNum":9,"memId":262081417,"name":"Tye Feuell","state":"OR","weeklyFee":423.64,"zip":131955803}
{"address":"597 Cody Crossing","city":"Portland","consultNum":7,"memId":296802277,"name":"Camille Reedick","state":"OR","weeklyFee":333.82,"zip":101355025}
{"address":"881 Vidon Parkway","city":"Salem","consultNum":6,"memId":235320179,"name":"Anabella De Vuyst","state":"OR","weeklyFee":550.62,"zip":117449879}
{"address":"894 Superior Terrace","city":"Portland","consultNum":8,"memId":286264052,"name":"Sarge Quoit","state":"OR","weeklyFee":420.47,"zip":186551562}
